CCSDS_OMM_VERS = 2.0
CREATION_DATE  = 
ORIGINATOR     = 

OBJECT_NAME    = 2025-274C
OBJECT_ID      = 2025-274C
CENTER_NAME    = EARTH
REF_FRAME      = TEME
TIME_SYSTEM    = UTC
MEAN_ELEMENT_THEORY = SGP/SGP4

EPOCH          = 2025-12-09T12:44:10.520448
MEAN_MOTION    = 14.91874076
ECCENTRICITY   = .00104068
INCLINATION    = 97.7387
RA_OF_ASC_NODE = 270.7817
ARG_OF_PERICENTER = 269.9894
MEAN_ANOMALY   = 90.0132

EPHEMERIS_TYPE = 0
CLASSIFICATION_TYPE = U
NORAD_CAT_ID   = 66652
ELEMENT_SET_NO = 999
REV_AT_EPOCH   = 192
BSTAR          = .37452279E-3
MEAN_MOTION_DOT = .3732E-4
MEAN_MOTION_DDOT = 0

CCSDS_OMM_VERS = 2.0
CREATION_DATE  = 
ORIGINATOR     = 

OBJECT_NAME    = 2025-274D
OBJECT_ID      = 2025-274D
CENTER_NAME    = EARTH
REF_FRAME      = TEME
TIME_SYSTEM    = UTC
MEAN_ELEMENT_THEORY = SGP/SGP4

EPOCH          = 2025-12-09T12:44:05.312256
MEAN_MOTION    = 14.91878474
ECCENTRICITY   = .00112798
INCLINATION    = 97.7386
RA_OF_ASC_NODE = 270.7814
ARG_OF_PERICENTER = 265.8961
MEAN_ANOMALY   = 94.0969

EPHEMERIS_TYPE = 0
CLASSIFICATION_TYPE = U
NORAD_CAT_ID   = 66653
ELEMENT_SET_NO = 999
REV_AT_EPOCH   = 192
BSTAR          = .38978067E-3
MEAN_MOTION_DOT = .3888E-4
MEAN_MOTION_DDOT = 0

CCSDS_OMM_VERS = 2.0
CREATION_DATE  = 
ORIGINATOR     = 

OBJECT_NAME    = JACK E
OBJECT_ID      = 2025-274E
CENTER_NAME    = EARTH
REF_FRAME      = TEME
TIME_SYSTEM    = UTC
MEAN_ELEMENT_THEORY = SGP/SGP4

EPOCH          = 2025-12-09T09:28:53.341248
MEAN_MOTION    = 14.92052620
ECCENTRICITY   = .00118648
INCLINATION    = 97.7388
RA_OF_ASC_NODE = 270.6521
ARG_OF_PERICENTER = 268.0515
MEAN_ANOMALY   = 91.9345

EPHEMERIS_TYPE = 0
CLASSIFICATION_TYPE = U
NORAD_CAT_ID   = 66654
ELEMENT_SET_NO = 999
REV_AT_EPOCH   = 190
BSTAR          = .43977089E-3
MEAN_MOTION_DOT = .4414E-4
MEAN_MOTION_DDOT = 0

CCSDS_OMM_VERS = 2.0
CREATION_DATE  = 
ORIGINATOR     = 

OBJECT_NAME    = 2025-274F
OBJECT_ID      = 2025-274F
CENTER_NAME    = EARTH
REF_FRAME      = TEME
TIME_SYSTEM    = UTC
MEAN_ELEMENT_THEORY = SGP/SGP4

EPOCH          = 2025-12-08T18:57:10.718496
MEAN_MOTION    = 14.92504145
ECCENTRICITY   = .00054909
INCLINATION    = 97.7329
RA_OF_ASC_NODE = 270.0601
ARG_OF_PERICENTER = 323.8556
MEAN_ANOMALY   = 36.2292

EPHEMERIS_TYPE = 0
CLASSIFICATION_TYPE = U
NORAD_CAT_ID   = 66655
ELEMENT_SET_NO = 999
REV_AT_EPOCH   = 181
BSTAR          = .1516128E-2
MEAN_MOTION_DOT = .15539E-3
MEAN_MOTION_DDOT = 0

CCSDS_OMM_VERS = 2.0
CREATION_DATE  = 
ORIGINATOR     = 

OBJECT_NAME    = 2025-274G
OBJECT_ID      = 2025-274G
CENTER_NAME    = EARTH
REF_FRAME      = TEME
TIME_SYSTEM    = UTC
MEAN_ELEMENT_THEORY = SGP/SGP4

EPOCH          = 2025-12-09T14:16:19.710912
MEAN_MOTION    = 14.92242660
ECCENTRICITY   = .00124857
INCLINATION    = 97.7385
RA_OF_ASC_NODE = 270.8514
ARG_OF_PERICENTER = 269.0756
MEAN_ANOMALY   = 90.9033

EPHEMERIS_TYPE = 0
CLASSIFICATION_TYPE = U
NORAD_CAT_ID   = 66656
ELEMENT_SET_NO = 999
REV_AT_EPOCH   = 193
BSTAR          = .46904644E-3
MEAN_MOTION_DOT = .4735E-4
MEAN_MOTION_DDOT = 0

CCSDS_OMM_VERS = 2.0
CREATION_DATE  = 
ORIGINATOR     = 

OBJECT_NAME    = SPIRONE
OBJECT_ID      = 2025-274H
CENTER_NAME    = EARTH
REF_FRAME      = TEME
TIME_SYSTEM    = UTC
MEAN_ELEMENT_THEORY = SGP/SGP4

EPOCH          = 2025-12-08T20:32:05.028864
MEAN_MOTION    = 14.92414576
ECCENTRICITY   = .0010976
INCLINATION    = 97.7386
RA_OF_ASC_NODE = 270.1280
ARG_OF_PERICENTER = 290.7866
MEAN_ANOMALY   = 69.2177

EPHEMERIS_TYPE = 0
CLASSIFICATION_TYPE = U
NORAD_CAT_ID   = 66657
ELEMENT_SET_NO = 999
REV_AT_EPOCH   = 182
BSTAR          = .36917E-3
MEAN_MOTION_DOT = .3729E-4
MEAN_MOTION_DDOT = 0

CCSDS_OMM_VERS = 2.0
CREATION_DATE  = 
ORIGINATOR     = 

OBJECT_NAME    = 2025-274J
OBJECT_ID      = 2025-274J
CENTER_NAME    = EARTH
REF_FRAME      = TEME
TIME_SYSTEM    = UTC
MEAN_ELEMENT_THEORY = SGP/SGP4

EPOCH          = 2025-12-09T14:11:55.777920
MEAN_MOTION    = 14.92594222
ECCENTRICITY   = .001152
INCLINATION    = 97.7384
RA_OF_ASC_NODE = 270.8551
ARG_OF_PERICENTER = 291.0278
MEAN_ANOMALY   = 68.9708

EPHEMERIS_TYPE = 0
CLASSIFICATION_TYPE = U
NORAD_CAT_ID   = 66658
ELEMENT_SET_NO = 999
REV_AT_EPOCH   = 193
BSTAR          = .44076437E-3
MEAN_MOTION_DOT = .4485E-4
MEAN_MOTION_DDOT = 0

CCSDS_OMM_VERS = 2.0
CREATION_DATE  = 
ORIGINATOR     = 

OBJECT_NAME    = JACK K
OBJECT_ID      = 2025-274K
CENTER_NAME    = EARTH
REF_FRAME      = TEME
TIME_SYSTEM    = UTC
MEAN_ELEMENT_THEORY = SGP/SGP4

EPOCH          = 2025-12-09T14:09:36.881280
MEAN_MOTION    = 14.92780033
ECCENTRICITY   = .00122716
INCLINATION    = 97.7386
RA_OF_ASC_NODE = 270.8575
ARG_OF_PERICENTER = 292.2179
MEAN_ANOMALY   = 67.7739

EPHEMERIS_TYPE = 0
CLASSIFICATION_TYPE = U
NORAD_CAT_ID   = 66659
ELEMENT_SET_NO = 999
REV_AT_EPOCH   = 193
BSTAR          = .43143897E-3
MEAN_MOTION_DOT = .441E-4
MEAN_MOTION_DDOT = 0

CCSDS_OMM_VERS = 2.0
CREATION_DATE  = 
ORIGINATOR     = 

OBJECT_NAME    = K-HERO
OBJECT_ID      = 2025-274L
CENTER_NAME    = EARTH
REF_FRAME      = TEME
TIME_SYSTEM    = UTC
MEAN_ELEMENT_THEORY = SGP/SGP4

EPOCH          = 2025-12-09T07:41:41.618976
MEAN_MOTION    = 14.92929512
ECCENTRICITY   = .00128916
INCLINATION    = 97.7391
RA_OF_ASC_NODE = 270.5960
ARG_OF_PERICENTER = 293.8465
MEAN_ANOMALY   = 66.1402

EPHEMERIS_TYPE = 0
CLASSIFICATION_TYPE = U
NORAD_CAT_ID   = 66660
ELEMENT_SET_NO = 999
REV_AT_EPOCH   = 189
BSTAR          = .45811345E-3
MEAN_MOTION_DOT = .4705E-4
MEAN_MOTION_DDOT = 0

CCSDS_OMM_VERS = 2.0
CREATION_DATE  = 
ORIGINATOR     = 

OBJECT_NAME    = SNUGLITE-III
OBJECT_ID      = 2025-274M
CENTER_NAME    = EARTH
REF_FRAME      = TEME
TIME_SYSTEM    = UTC
MEAN_ELEMENT_THEORY = SGP/SGP4

EPOCH          = 2025-12-09T12:29:21.816096
MEAN_MOTION    = 14.93072210
ECCENTRICITY   = .00135441
INCLINATION    = 97.7389
RA_OF_ASC_NODE = 270.7952
ARG_OF_PERICENTER = 294.1543
MEAN_ANOMALY   = 65.8260

EPHEMERIS_TYPE = 0
CLASSIFICATION_TYPE = U
NORAD_CAT_ID   = 66661
ELEMENT_SET_NO = 999
REV_AT_EPOCH   = 192
BSTAR          = .33345689E-3
MEAN_MOTION_DOT = .3422E-4
MEAN_MOTION_DDOT = 0

CCSDS_OMM_VERS = 2.0
CREATION_DATE  = 
ORIGINATOR     = 

OBJECT_NAME    = 2025-274N
OBJECT_ID      = 2025-274N
CENTER_NAME    = EARTH
REF_FRAME      = TEME
TIME_SYSTEM    = UTC
MEAN_ELEMENT_THEORY = SGP/SGP4

EPOCH          = 2025-12-09T07:39:06.696864
MEAN_MOTION    = 14.93119374
ECCENTRICITY   = .0013906
INCLINATION    = 97.7389
RA_OF_ASC_NODE = 270.5980
ARG_OF_PERICENTER = 294.3348
MEAN_ANOMALY   = 65.6419

EPHEMERIS_TYPE = 0
CLASSIFICATION_TYPE = U
NORAD_CAT_ID   = 66662
ELEMENT_SET_NO = 999
REV_AT_EPOCH   = 189
BSTAR          = .30732E-3
MEAN_MOTION_DOT = .3153E-4
MEAN_MOTION_DDOT = 0

CCSDS_OMM_VERS = 2.0
CREATION_DATE  = 
ORIGINATOR     = 

OBJECT_NAME    = KSLV-II R/B
OBJECT_ID      = 2025-274P
CENTER_NAME    = EARTH
REF_FRAME      = TEME
TIME_SYSTEM    = UTC
MEAN_ELEMENT_THEORY = SGP/SGP4

EPOCH          = 2025-12-09T08:24:04.565376
MEAN_MOTION    = 14.97241242
ECCENTRICITY   = .00501615
INCLINATION    = 97.7404
RA_OF_ASC_NODE = 270.7232
ARG_OF_PERICENTER = 331.3188
MEAN_ANOMALY   = 28.5276

EPHEMERIS_TYPE = 0
CLASSIFICATION_TYPE = U
NORAD_CAT_ID   = 66663
ELEMENT_SET_NO = 999
REV_AT_EPOCH   = 190
BSTAR          = .33078132E-3
MEAN_MOTION_DOT = .3867E-4
MEAN_MOTION_DDOT = 0

